#cP2017 12 13  0  0  0.00000000      96 ORBIT IGS14 HLM  IGS
## 1979 259200.00000000   900.00000000 58100 0.0000000000000
+   32   G01G02G03G04G05G06G07G08G09G10G11G12G13G14G15G16G17
+        G18G19G20G21G22G23G24G25G26G27G28G29G30G31G32  0  0
+          0  0  0  0  0  0  0  0  0  0  0  0  0  0  0  0  0
+          0  0  0  0  0  0  0  0  0  0  0  0  0  0  0  0  0
+          0  0  0  0  0  0  0  0  0  0  0  0  0  0  0  0  0
++         2  2  2  0  2  2  2  2  2  2  2  2  2  2  2  2  2
++         2  2  2  2  2  2  2  2  2  2  2  2  2  2  2  0  0
++         0  0  0  0  0  0  0  0  0  0  0  0  0  0  0  0  0
++         0  0  0  0  0  0  0  0  0  0  0  0  0  0  0  0  0
++         0  0  0  0  0  0  0  0  0  0  0  0  0  0  0  0  0
%c G  cc GPS ccc cccc cccc cccc cccc ccccc ccccc ccccc ccccc
%c cc cc ccc ccc cccc cccc cccc cccc ccccc ccccc ccccc ccccc
%f  1.2500000  1.025000000  0.00000000000  0.000000000000000
%f  0.0000000  0.000000000  0.00000000000  0.000000000000000
%i    0    0    0    0      0      0      0      0         0
%i    0    0    0    0      0      0      0      0         0
/* RAPID ORBIT COMBINATION FROM WEIGHTED AVERAGE OF:        
/* cod emr esa gfz jpl ngs sio usn whu                      
/* REFERENCED TO IGS TIME (IGST) AND TO WEIGHTED MEAN POLE: 
/* PCV:IGS14_1977 OL/AL:FES2004  NONE     Y  ORB:CMB CLK:CMB
*  2017 12 13 18  0  0.00000000
PG01 -13370.783252  17783.051144  14156.407076    -16.578965  4  4  5  99       
PG02  14337.853653   6189.402524 -20981.552481    256.306186  5  3  4 110       
PG03 -21327.518498  13503.699488  -8203.109523    -27.594329  5  8  4  97       
PG04 -12542.094426 -10818.483478 -21056.786256 999999.999999
PG05  24416.918502   -768.069180 -10774.375585    -19.887284  5  5  6 102       
PG06   8985.336775  17703.380044 -17618.181174    413.083800  3  4  6 113       
PG07  -5446.850675  25746.359667    -48.458145    266.447974  6  6  4 100       
PG08 -19293.318179    251.954457  18362.110060    -83.972210  4  5  6 116       
PG09   -279.022484  17969.685528 -19590.066043    482.735487  8  4  4  99       
PG10  -7048.405114 -13629.309274  21711.496478    128.786745  4  6  4 121       
PG11 -11801.363809  14179.884018  18588.746599   -730.450751  5  7  4  75       
PG12  23509.539974 -10681.010119  -5921.205963    360.549959  3  7  5 108       
PG13  20813.848352   8449.595572  14042.096268    -94.727992  5  9  6  88       
PG14 -18586.437571 -19101.203012    398.681489    -90.495002  8 10  6 120       
PG15  18853.699162  -3211.181104  18379.601209   -357.386798  5  8  4  59       
PG16 -24771.234142   -504.453675 -10249.957247     35.490461  4  5  6 124       
PG17  13229.750239  21277.090471   9414.783868   -138.392104  6  7  5  89       
PG18   4581.836854 -17852.644376  19665.015751    633.438566  5  7  3 125       
PG19  17910.127949  19429.162849    707.375480   -470.124994  5  8  7 111       
PG20  22176.511324 -13910.640494   4222.888662    495.470071  5  9  4 118       
PG21   2173.954676 -26397.118306   2237.493204   -452.884873  6 10  2 124       
PG22 -24489.340194  10300.512197   -343.628556   -221.154292  4  9  4 110       
PG23 -11700.912856  10292.999801 -21270.615736   -218.968124  6  7  2  74       
PG24  14180.767096 -15293.181594  16185.715256    -43.403016  4  3  6  88       
PG25  13724.234413 -16188.261969 -15982.837012   -505.163765  5  6  4 119       
PG26 -18084.499514  -7013.756755 -18187.303991   -326.591656  6  7  6 112       
PG27 -22458.971289 -10886.502311   9360.473828    355.701332  4  6  5 114       
PG28   2186.081221  14829.004796  22566.026015    670.708446  4 10  5  96       
PG29   5319.796608 -14759.007248 -21444.898635    525.706717  4  8  6  91       
PG30    704.869007  24816.651816   9239.341468    121.039077  7  5  2  94       
PG31  -9288.550045 -16594.391035 -18305.082961    155.738772  6  8  6  99       
PG32 -15452.270625 -20238.130265   7692.757921   -529.561023  3  6  6 108       
*  2017 12 13 18 15  0.00000000
PG01 -13270.429776  16007.681936  16225.272061    -16.581317  5  5  5  98       
PG02  14024.913768   8646.665353 -20356.971765    256.297089  5  3  4 107       
PG03 -22146.645716  13553.586332  -5492.003101    -27.588896  5  8  4 109       
PG04 -10299.064730 -11653.918614 -21798.106056 999999.999999
PG05  23254.752766    -46.015965 -13119.447160    -19.886224  5  5  6 102       
PG06   8547.516546  19570.828455 -15764.796397    413.084702  3  3  6 106       
PG07  -5699.487327  25504.805200  -2923.309801    266.443221  6  6  4  98       
PG08 -20771.409990  -1082.377537  16643.582797    -83.973353  4  5  6 122       
PG09  -2146.108071  16628.006805 -20634.024454    482.739186  8  4  4  96       
PG10  -4735.501677 -14527.533070  21744.212853    128.792842  4  6  4 111       
PG11 -12536.112719  11982.794970  19585.321486   -730.451918  6  8  3  87       
PG12  24039.255233 -10652.714763  -3061.646887    360.548242  3  6  4 102       
PG13  21719.271598   9649.190402  11724.819523    -94.727789  5  9  6  88       
PG14 -18293.834449 -19153.817299   3236.219941    -90.495963  8 10  6 115       
PG15  20443.586160  -1906.972337  16848.280715   -357.387039  5  8  4  73       
PG16 -23579.290150   -984.504642 -12720.624299     35.490021  4  5  5 120       
PG17  12258.879997  20616.728806  11946.584493   -138.389639  6  7  6 103       
PG18   6548.162764 -18556.003295  18359.504666    633.438601  6  8  3 124       
PG19  17557.646420  19391.509745   3598.204682   -470.123303  4  8  7 110       
PG20  22641.874215 -13754.023636   1458.631400    495.470806  6  9  4 120       
PG21   2485.671497 -26373.225018   -582.786575   -452.881856  7 10  3 132       
PG22 -24548.243240   9936.187296   2432.031245   -221.166198  4  8  3 107       
PG23 -13619.783492   8742.335076 -20861.381458   -218.968205  6  7  2  81       
PG24  14147.896269 -13301.364428  17898.743500    -43.403722  4  3  5  96       
PG25  15359.824325 -16636.037065 -13853.818378   -505.169337  5  6  5 111       
PG26 -16129.122286  -7939.348279 -19581.552088   -326.578799  6  7  6  98       
PG27 -23063.030612 -11600.915019   6685.531450    355.703855  5  6  6 114       
PG28   -138.874679  15490.831897  22216.387800    670.711376  3 10  5 104       
PG29   7173.314470 -13118.145242 -21964.359472    525.702221  5  7  5 107       
PG30    234.372066  25648.028768   6604.391812    121.036667  6  4  2  41       
PG31  -8749.778414 -18548.505156 -16584.199891    155.736493  6  8  6 115       
PG32 -14503.101593 -19785.833978  10282.269482   -529.562741  3  6  6 103       
*  2017 12 13 18 30  0.00000000
PG01 -13241.575336  14011.015997  18008.997687    -16.583679  5  6  6  89       
PG02  13837.682068  11018.669990 -19367.039128    256.288300  5  3  4 112       
PG03 -22677.669026  13516.404719  -2686.150395    -27.583429  5  7  4 114       
PG04  -8046.858917 -12638.999492 -22173.390830 999999.999999
PG05  21903.995059    841.778942 -15242.258613    -19.885273  4  5  6  89       
PG06   8230.994204  21234.245164 -13639.630053    413.085620  2  3  6 110       
PG07  -5927.663512  24951.753511  -5746.305836    266.438450  6  6  4  95       
PG08 -22146.295155  -2215.376788  14641.162804    -83.974973  4  5  5 119       
PG09  -4159.233156  15327.272322 -21323.993959    482.742923  7  5  5  89       
PG10  -2487.006721 -15538.214128  21403.452253    128.798926  4  6  3 115       
PG11 -13391.491631   9725.742677  20229.204352   -730.453165  6  7  3  98       
PG12  24263.584953 -10534.391768   -148.880556    360.546907  4  6  3 104       
PG13  22483.575037  10613.185509   9204.397199    -94.728251  5  9  7  96       
PG14 -17763.498317 -19017.401519   6018.846839    -90.496537  8 10  6 125       
PG15  21928.975884   -780.197065  15027.002383   -357.387067  4  9  4  80       
PG16 -22167.256828  -1623.437690 -14978.407156     35.489408  5  5  5 128       
PG17  11040.764236  19842.975484  14278.181412   -138.387609  5  7  5 104       
PG18   8340.423067 -19278.870061  16750.285437    633.438768  6  9  4 115       
PG19  16955.120679  19159.975006   6425.985945   -470.121052  4  8  7 113       
PG20  22842.677312 -13462.577956  -1330.825600    495.471918  6  8  4 121       
PG21   2787.995269 -26045.388235  -3392.886945   -452.878484  7 10  4 124       
PG22 -24348.246959   9434.746153   5166.013648   -221.177815  4  7  3  99       
PG23 -15553.229324   7329.127475 -20086.752574   -218.968374  6  7  2  81       
PG24  14201.236461 -11134.990553  19298.479020    -43.404345  4  4  3  94       
PG25  16738.631975 -17066.343483 -11485.975301   -505.174909  5  6  5 106       
PG26 -14098.114741  -9024.649316 -20639.685141   -326.565909  6  6  6 111       
PG27 -23453.579906 -12102.374186   3896.896833    355.706413  5  6  6 120       
PG28  -2367.656708  16266.880307  21506.187759    670.714276  3  9  4  95       
PG29   9144.543994 -11559.358302 -22106.318335    525.697631  5  7  5 117       
PG30   -148.259177  26200.110145   3854.817763    121.034265  6  6  1  23       
PG31  -8339.471982 -20318.430471 -14571.900617    155.734014  6  8  6  93       
PG32 -13300.651837 -19220.641741  12695.599739   -529.564415  3  6  6 110       
EOF
